CCSDS_OMM_VERS = 2.0
CREATION_DATE  = 
ORIGINATOR     = 

OBJECT_NAME    = SL-4 R/B
OBJECT_ID      = 2014-021B
CENTER_NAME    = EARTH
REF_FRAME      = TEME
TIME_SYSTEM    = UTC
MEAN_ELEMENT_THEORY = SGP/SGP4

EPOCH          = 2026-01-09T18:26:26.892384
MEAN_MOTION    = 15.37423045
ECCENTRICITY   = .00996689
INCLINATION    = 51.6072
RA_OF_ASC_NODE = 264.3085
ARG_OF_PERICENTER = 247.8013
MEAN_ANOMALY   = 111.2372

EPHEMERIS_TYPE = 0
CLASSIFICATION_TYPE = U
NORAD_CAT_ID   = 39679
ELEMENT_SET_NO = 999
REV_AT_EPOCH   = 64720
BSTAR          = .25178645E-3
MEAN_MOTION_DOT = .10676E-3
MEAN_MOTION_DDOT = 0

CCSDS_OMM_VERS = 2.0
CREATION_DATE  = 
ORIGINATOR     = 

OBJECT_NAME    = ALOS-2
OBJECT_ID      = 2014-029A
CENTER_NAME    = EARTH
REF_FRAME      = TEME
TIME_SYSTEM    = UTC
MEAN_ELEMENT_THEORY = SGP/SGP4

EPOCH          = 2026-01-09T22:42:10.461024
MEAN_MOTION    = 14.79465339
ECCENTRICITY   = .00013746
INCLINATION    = 97.9206
RA_OF_ASC_NODE = 109.3888
ARG_OF_PERICENTER = 93.8498
MEAN_ANOMALY   = 266.2870

EPHEMERIS_TYPE = 0
CLASSIFICATION_TYPE = U
NORAD_CAT_ID   = 39766
ELEMENT_SET_NO = 999
REV_AT_EPOCH   = 62818
BSTAR          = .13126053E-4
MEAN_MOTION_DOT = .47E-6
MEAN_MOTION_DDOT = 0

CCSDS_OMM_VERS = 2.0
CREATION_DATE  = 
ORIGINATOR     = 

OBJECT_NAME    = YAOGAN-29
OBJECT_ID      = 2015-069A
CENTER_NAME    = EARTH
REF_FRAME      = TEME
TIME_SYSTEM    = UTC
MEAN_ELEMENT_THEORY = SGP/SGP4

EPOCH          = 2026-01-09T22:58:31.931328
MEAN_MOTION    = 14.82919360
ECCENTRICITY   = .00019919
INCLINATION    = 98.0198
RA_OF_ASC_NODE = 38.2163
ARG_OF_PERICENTER = 135.8999
MEAN_ANOMALY   = 224.2374

EPHEMERIS_TYPE = 0
CLASSIFICATION_TYPE = U
NORAD_CAT_ID   = 41038
ELEMENT_SET_NO = 999
REV_AT_EPOCH   = 54717
BSTAR          = .71404336E-4
MEAN_MOTION_DOT = .525E-5
MEAN_MOTION_DDOT = 0

CCSDS_OMM_VERS = 2.0
CREATION_DATE  = 
ORIGINATOR     = 

OBJECT_NAME    = ASTRO-H (HITOMI)
OBJECT_ID      = 2016-012A
CENTER_NAME    = EARTH
REF_FRAME      = TEME
TIME_SYSTEM    = UTC
MEAN_ELEMENT_THEORY = SGP/SGP4

EPOCH          = 2026-01-08T17:40:00.120000
MEAN_MOTION    = 15.09564394
ECCENTRICITY   = .0009558
INCLINATION    = 31.0009
RA_OF_ASC_NODE = 23.3065
ARG_OF_PERICENTER = 90.9553
MEAN_ANOMALY   = 269.2180

EPHEMERIS_TYPE = 0
CLASSIFICATION_TYPE = U
NORAD_CAT_ID   = 41337
ELEMENT_SET_NO = 999
REV_AT_EPOCH   = 54316
BSTAR          = .22414E-3
MEAN_MOTION_DOT = .3785E-4
MEAN_MOTION_DDOT = 0

CCSDS_OMM_VERS = 2.0
CREATION_DATE  = 
ORIGINATOR     = 

OBJECT_NAME    = HXMT (HUIYAN)
OBJECT_ID      = 2017-034A
CENTER_NAME    = EARTH
REF_FRAME      = TEME
TIME_SYSTEM    = UTC
MEAN_ELEMENT_THEORY = SGP/SGP4

EPOCH          = 2026-01-09T21:59:34.564992
MEAN_MOTION    = 15.16652193
ECCENTRICITY   = .00331494
INCLINATION    = 43.0156
RA_OF_ASC_NODE = 343.2279
ARG_OF_PERICENTER = 224.6733
MEAN_ANOMALY   = 135.1442

EPHEMERIS_TYPE = 0
CLASSIFICATION_TYPE = U
NORAD_CAT_ID   = 42758
ELEMENT_SET_NO = 999
REV_AT_EPOCH   = 47361
BSTAR          = .38633049E-3
MEAN_MOTION_DOT = .7571E-4
MEAN_MOTION_DDOT = 0

CCSDS_OMM_VERS = 2.0
CREATION_DATE  = 
ORIGINATOR     = 

OBJECT_NAME    = CZ-2C R/B
OBJECT_ID      = 2018-054D
CENTER_NAME    = EARTH
REF_FRAME      = TEME
TIME_SYSTEM    = UTC
MEAN_ELEMENT_THEORY = SGP/SGP4

EPOCH          = 2026-01-09T15:27:49.497696
MEAN_MOTION    = 15.81466675
ECCENTRICITY   = .00104812
INCLINATION    = 35.1341
RA_OF_ASC_NODE = 350.7342
ARG_OF_PERICENTER = 71.0564
MEAN_ANOMALY   = 289.1306

EPHEMERIS_TYPE = 0
CLASSIFICATION_TYPE = U
NORAD_CAT_ID   = 43521
ELEMENT_SET_NO = 999
REV_AT_EPOCH   = 41946
BSTAR          = .79040091E-3
MEAN_MOTION_DOT = .167149E-2
MEAN_MOTION_DDOT = 0

CCSDS_OMM_VERS = 2.0
CREATION_DATE  = 
ORIGINATOR     = 

OBJECT_NAME    = SAOCOM 1A
OBJECT_ID      = 2018-076A
CENTER_NAME    = EARTH
REF_FRAME      = TEME
TIME_SYSTEM    = UTC
MEAN_ELEMENT_THEORY = SGP/SGP4

EPOCH          = 2026-01-10T11:58:22.673856
MEAN_MOTION    = 14.82145062
ECCENTRICITY   = .0001467
INCLINATION    = 97.8855
RA_OF_ASC_NODE = 199.5035
ARG_OF_PERICENTER = 90.0313
MEAN_ANOMALY   = 270.1068

EPHEMERIS_TYPE = 0
CLASSIFICATION_TYPE = U
NORAD_CAT_ID   = 43641
ELEMENT_SET_NO = 999
REV_AT_EPOCH   = 39274
BSTAR          = .7285E-4
MEAN_MOTION_DOT = .528E-5
MEAN_MOTION_DDOT = 0

CCSDS_OMM_VERS = 2.0
CREATION_DATE  = 
ORIGINATOR     = 

OBJECT_NAME    = H-2A R/B
OBJECT_ID      = 2018-084L
CENTER_NAME    = EARTH
REF_FRAME      = TEME
TIME_SYSTEM    = UTC
MEAN_ELEMENT_THEORY = SGP/SGP4

EPOCH          = 2026-01-09T12:56:29.884128
MEAN_MOTION    = 15.38618725
ECCENTRICITY   = .00258069
INCLINATION    = 98.8765
RA_OF_ASC_NODE = 214.4078
ARG_OF_PERICENTER = 228.2697
MEAN_ANOMALY   = 131.6337

EPHEMERIS_TYPE = 0
CLASSIFICATION_TYPE = U
NORAD_CAT_ID   = 43682
ELEMENT_SET_NO = 999
REV_AT_EPOCH   = 39667
BSTAR          = .54294802E-3
MEAN_MOTION_DOT = .20868E-3
MEAN_MOTION_DDOT = 0

CCSDS_OMM_VERS = 2.0
CREATION_DATE  = 
ORIGINATOR     = 

OBJECT_NAME    = SAOCOM 1B
OBJECT_ID      = 2020-059A
CENTER_NAME    = EARTH
REF_FRAME      = TEME
TIME_SYSTEM    = UTC
MEAN_ELEMENT_THEORY = SGP/SGP4

EPOCH          = 2026-01-10T09:28:52.694112
MEAN_MOTION    = 14.82145359
ECCENTRICITY   = .0001315
INCLINATION    = 97.8852
RA_OF_ASC_NODE = 198.5005
ARG_OF_PERICENTER = 91.4021
MEAN_ANOMALY   = 268.7342

EPHEMERIS_TYPE = 0
CLASSIFICATION_TYPE = U
NORAD_CAT_ID   = 46265
ELEMENT_SET_NO = 999
REV_AT_EPOCH   = 29011
BSTAR          = .71138E-4
MEAN_MOTION_DOT = .514E-5
MEAN_MOTION_DDOT = 0

CCSDS_OMM_VERS = 2.0
CREATION_DATE  = 
ORIGINATOR     = 

OBJECT_NAME    = CSS (TIANHE)
OBJECT_ID      = 2021-035A
CENTER_NAME    = EARTH
REF_FRAME      = TEME
TIME_SYSTEM    = UTC
MEAN_ELEMENT_THEORY = SGP/SGP4

EPOCH          = 2026-01-09T13:36:50.073408
MEAN_MOTION    = 15.60345928
ECCENTRICITY   = .00113093
INCLINATION    = 41.4650
RA_OF_ASC_NODE = 207.6167
ARG_OF_PERICENTER = 251.9073
MEAN_ANOMALY   = 108.0534

EPHEMERIS_TYPE = 0
CLASSIFICATION_TYPE = U
NORAD_CAT_ID   = 48274
ELEMENT_SET_NO = 999
REV_AT_EPOCH   = 26837
BSTAR          = .20794928E-3
MEAN_MOTION_DOT = .17274E-3
MEAN_MOTION_DDOT = 0

CCSDS_OMM_VERS = 2.0
CREATION_DATE  = 
ORIGINATOR     = 

OBJECT_NAME    = CZ-2C R/B
OBJECT_ID      = 2022-058K
CENTER_NAME    = EARTH
REF_FRAME      = TEME
TIME_SYSTEM    = UTC
MEAN_ELEMENT_THEORY = SGP/SGP4

EPOCH          = 2026-01-09T09:53:14.671104
MEAN_MOTION    = 15.50248185
ECCENTRICITY   = .00432794
INCLINATION    = 50.1895
RA_OF_ASC_NODE = 262.2605
ARG_OF_PERICENTER = 311.9077
MEAN_ANOMALY   = 47.8205

EPHEMERIS_TYPE = 0
CLASSIFICATION_TYPE = U
NORAD_CAT_ID   = 52794
ELEMENT_SET_NO = 999
REV_AT_EPOCH   = 20092
BSTAR          = .58415123E-3
MEAN_MOTION_DOT = .34666E-3
MEAN_MOTION_DDOT = 0

