SL-4 R/B                
1 39679U 14021B   26009.76836681  .00010676  00000+0  25179-3 0  9990
2 39679  51.6072 264.3085 0099668 247.8013 111.2372 15.37423045647208
ALOS-2                  
1 39766U 14029A   26009.94595441  .00000047  00000+0  13126-4 0  9992
2 39766  97.9206 109.3888 0001374  93.8498 266.2870 14.79465339628186
YAOGAN-29               
1 41038U 15069A   26009.95731402  .00000525  00000+0  71404-4 0  9996
2 41038  98.0198  38.2163 0001991 135.8999 224.2374 14.82919360547171
ASTRO-H (HITOMI)        
1 41337U 16012A   26008.73611250  .00003785  00000+0  22414-3 0  9997
2 41337  31.0009  23.3065 0009558  90.9553 269.2180 15.09564394543163
HXMT (HUIYAN)           
1 42758U 17034A   26009.91637228  .00007571  00000+0  38633-3 0  9991
2 42758  43.0156 343.2279 0033149 224.6733 135.1442 15.16652193473614
CZ-2C R/B               
1 43521U 18054D   26009.64432289  .00167149  00000+0  79040-3 0  9998
2 43521  35.1341 350.7342 0010481  71.0564 289.1306 15.81466675419467
SAOCOM 1A               
1 43641U 18076A   26010.49887354  .00000528  00000+0  72850-4 0  9997
2 43641  97.8855 199.5035 0001467  90.0313 270.1068 14.82145062392740
H-2A R/B                
1 43682U 18084L   26009.53923477  .00020868  00000+0  54295-3 0  9992
2 43682  98.8765 214.4078 0025806 228.2697 131.6337 15.38618725396672
SAOCOM 1B               
1 46265U 20059A   26010.39505433  .00000514  00000+0  71138-4 0  9993
2 46265  97.8852 198.5005 0001315  91.4021 268.7342 14.82145359290116
CSS (TIANHE)            
1 48274U 21035A   26009.56724622  .00017274  00000+0  20795-3 0  9993
2 48274  41.4650 207.6167 0011309 251.9073 108.0534 15.60345928268377
CZ-2C R/B               
1 52794U 22058K   26009.41197536  .00034666  00000+0  58415-3 0  9997
2 52794  50.1895 262.2605 0043279 311.9077  47.8205 15.50248185200921
